{
  "type": "FeatureCollection",
  "features": [
    { "type": "Feature", "properties": { "id": "Z1", "name": "Central Zone", "aqi": 180, "dominant_pollutant": "PM2.5", "aviation_exposure": 4, "population": 500000 }, "geometry": { "type": "Polygon", "coordinates": [[[77.2, 28.6], [77.25, 28.6], [77.25, 28.65], [77.2, 28.65], [77.2, 28.6]]] } },
    { "type": "Feature", "properties": { "id": "Z2", "name": "South Zone", "aqi": 210, "dominant_pollutant": "NO2", "aviation_exposure": 8, "population": 750000 }, "geometry": { "type": "Polygon", "coordinates": [[[77.15, 28.5], [77.25, 28.5], [77.25, 28.6], [77.15, 28.6], [77.15, 28.5]]] } },
    { "type": "Feature", "properties": { "id": "Z3", "name": "South West Zone", "aqi": 250, "dominant_pollutant": "NOx", "aviation_exposure": 10, "population": 800000 }, "geometry": { "type": "Polygon", "coordinates": [[[77.05, 28.5], [77.15, 28.5], [77.15, 28.6], [77.05, 28.6], [77.05, 28.5]]] } },
    { "type": "Feature", "properties": { "id": "Z4", "name": "West Zone", "aqi": 190, "dominant_pollutant": "PM10", "aviation_exposure": 6, "population": 600000 }, "geometry": { "type": "Polygon", "coordinates": [[[77.05, 28.6], [77.15, 28.6], [77.15, 28.7], [77.05, 28.7], [77.05, 28.6]]] } },
    { "type": "Feature", "properties": { "id": "Z5", "name": "North West Zone", "aqi": 170, "dominant_pollutant": "PM10", "aviation_exposure": 3, "population": 700000 }, "geometry": { "type": "Polygon", "coordinates": [[[77.05, 28.7], [77.15, 28.7], [77.15, 28.8], [77.05, 28.8], [77.05, 28.7]]] } },
    { "type": "Feature", "properties": { "id": "Z6", "name": "North Zone", "aqi": 160, "dominant_pollutant": "PM2.5", "aviation_exposure": 2, "population": 550000 }, "geometry": { "type": "Polygon", "coordinates": [[[77.15, 28.7], [77.25, 28.7], [77.25, 28.8], [77.15, 28.8], [77.15, 28.7]]] } },
    { "type": "Feature", "properties": { "id": "Z7", "name": "Civil Lines", "aqi": 150, "dominant_pollutant": "O3", "aviation_exposure": 2, "population": 400000 }, "geometry": { "type": "Polygon", "coordinates": [[[77.2, 28.65], [77.25, 28.65], [77.25, 28.7], [77.2, 28.7], [77.2, 28.65]]] } },
    { "type": "Feature", "properties": { "id": "Z8", "name": "Shahdara North", "aqi": 220, "dominant_pollutant": "PM2.5", "aviation_exposure": 3, "population": 850000 }, "geometry": { "type": "Polygon", "coordinates": [[[77.25, 28.65], [77.35, 28.65], [77.35, 28.75], [77.25, 28.75], [77.25, 28.65]]] } },
    { "type": "Feature", "properties": { "id": "Z9", "name": "Shahdara South", "aqi": 200, "dominant_pollutant": "PM10", "aviation_exposure": 4, "population": 750000 }, "geometry": { "type": "Polygon", "coordinates": [[[77.25, 28.55], [77.35, 28.55], [77.35, 28.65], [77.25, 28.65], [77.25, 28.55]]] } },
    { "type": "Feature", "properties": { "id": "Z10", "name": "East Zone", "aqi": 180, "dominant_pollutant": "PM2.5", "aviation_exposure": 3, "population": 650000 }, "geometry": { "type": "Polygon", "coordinates": [[[77.25, 28.45], [77.35, 28.45], [77.35, 28.55], [77.25, 28.55], [77.25, 28.45]]] } },
    { "type": "Feature", "properties": { "id": "Z11", "name": "Najafgarh", "aqi": 260, "dominant_pollutant": "NOx", "aviation_exposure": 9, "population": 500000 }, "geometry": { "type": "Polygon", "coordinates": [[[76.9, 28.5], [77.05, 28.5], [77.05, 28.6], [76.9, 28.6], [76.9, 28.5]]] } },
    { "type": "Feature", "properties": { "id": "Z12", "name": "Narela", "aqi": 140, "dominant_pollutant": "PM10", "aviation_exposure": 1, "population": 400000 }, "geometry": { "type": "Polygon", "coordinates": [[[76.95, 28.8], [77.15, 28.8], [77.15, 28.9], [76.95, 28.9], [76.95, 28.8]]] } }
  ]
}
