{
  "type": "FeatureCollection",
  "features": [
    {
      "type": "Feature",
      "properties": { "name": "North" },
      "geometry": {
        "type": "Polygon",
        "coordinates": [[[77.2,28.8],[77.5,28.8],[77.5,28.9],[77.2,28.9],[77.2,28.8]]]
      }
    },
    {
      "type": "Feature",
      "properties": { "name": "North-West" },
      "geometry": {
        "type": "Polygon",
        "coordinates": [[[76.9,28.6],[77.2,28.6],[77.2,28.8],[76.9,28.8],[76.9,28.6]]]
      }
    },
    {
      "type": "Feature",
      "properties": { "name": "North-East" },
      "geometry": {
        "type": "Polygon",
        "coordinates": [[[77.5,28.6],[77.8,28.6],[77.8,28.9],[77.5,28.9],[77.5,28.6]]]
      }
    },
    {
      "type": "Feature",
      "properties": { "name": "West" },
      "geometry": {
        "type": "Polygon",
        "coordinates": [[[76.8,28.4],[77.1,28.4],[77.1,28.6],[76.8,28.6],[76.8,28.4]]]
      }
    },
    {
      "type": "Feature",
      "properties": { "name": "Central" },
      "geometry": {
        "type": "Polygon",
        "coordinates": [[[77.1,28.4],[77.4,28.4],[77.4,28.6],[77.1,28.6],[77.1,28.4]]]
      }
    },
    {
      "type": "Feature",
      "properties": { "name": "New Delhi" },
      "geometry": {
        "type": "Polygon",
        "coordinates": [[[77.1,28.6],[77.3,28.6],[77.3,28.8],[77.1,28.8],[77.1,28.6]]]
      }
    },
    {
      "type": "Feature",
      "properties": { "name": "East" },
      "geometry": {
        "type": "Polygon",
        "coordinates": [[[77.4,28.4],[77.7,28.4],[77.7,28.6],[77.4,28.6],[77.4,28.4]]]
      }
    },
    {
      "type": "Feature",
      "properties": { "name": "South-West" },
      "geometry": {
        "type": "Polygon",
        "coordinates": [[[76.9,28.2],[77.2,28.2],[77.2,28.4],[76.9,28.4],[76.9,28.2]]]
      }
    },
    {
      "type": "Feature",
      "properties": { "name": "South" },
      "geometry": {
        "type": "Polygon",
        "coordinates": [[[77.2,28.2],[77.5,28.2],[77.5,28.4],[77.2,28.4],[77.2,28.2]]]
      }
    },
    {
      "type": "Feature",
      "properties": { "name": "Shahdara" },
      "geometry": {
        "type": "Polygon",
        "coordinates": [[[77.5,28.4],[77.8,28.4],[77.8,28.6],[77.5,28.6],[77.5,28.4]]]
      }
    },
    {
      "type": "Feature",
      "properties": { "name": "Outer" },
      "geometry": {
        "type": "Polygon",
        "coordinates": [[[76.7,28.0],[77.0,28.0],[77.0,28.2],[76.7,28.2],[76.7,28.0]]]
      }
    },
    {
      "type": "Feature",
      "properties": { "name": "Outer-North" },
      "geometry": {
        "type": "Polygon",
        "coordinates": [[[77.0,28.8],[77.3,28.8],[77.3,29.0],[77.0,29.0],[77.0,28.8]]]
      }
    }
  ]
}
